              M50 Cartesian                         M50 Keplerian  
    -----------------------------------       --------------------------------
     X    =        5806504.95                 A    =         6785977.43  meter
     Y    =       -2172420.33  meter          E    =           .0005910
     Z    =       -2758475.29                 I    =           51.65863
     XDOT =       3962.179149                 Wp   =           53.12806
     YDOT =       4074.013898  meter/sec      RA   =             .09207  deg
     ZDOT =       5142.888020                 TA   =          275.65342
                                              MA   =          275.72081
                                              Ha   =            221.205  n.mi
                                              Hp   =            214.351
 
              M50 Cartesian                         J2K Cartesian  
    -----------------------------------       --------------------------------
     X    =       19050213.08                 X    =         5843765.48
     Y    =       -7127363.27  feet           Y    =        -2107280.05  meter
     Z    =       -9050115.77                 Z    =        -2730177.92
     XDOT =      12999.275424                 XDOT =        3891.345991
     YDOT =      13366.187328  feet/sec       YDOT =        4117.926061  meter/sec
     ZDOT =      16872.992193                 ZDOT =        5161.962938
 
              TDR Cartesian                         TDR Cartesian  
    -----------------------------------       --------------------------------
     X    =       12917771.50                 X    =         3937336.75
     Y    =      -15781601.26  feet           Y    =        -4810232.06  meter
     Z    =       -8926744.21                 Z    =        -2720871.64
     XDOT =      16717.921881                 XDOT =        5095.622589
     YDOT =       4114.543957  feet/sec       YDOT =        1254.112998  meter/sec
     ZDOT =      16955.055264                 ZDOT =        5167.900844
  
  
    The mean element set is posted at the UTC for which position is
    just north of the next ascending node relative to the above
    vector time
 
 
    TWO LINE MEAN ELEMENT SET
  
    ISS
    1 25544U 98067A   16108.51946601  .00016717  00000-0  10270-3 0  9140
    2 25544  51.6442    .6445 0001104  39.3331 320.7901 15.54200440 35545
  
  
    Satellite: ISS
    Catalog Number: 25544
    Epoch time:      16108.51946601   =   yrday.fracday
    Element set:     914
    Inclination:       51.6442  deg
    RA of node:          .6445  deg
    Eccentricity:     .0001104     
    Arg of perigee:    39.3331  deg
    Mean anomaly:     320.7901  deg
    Mean motion:   15.54200440  rev/day
    Decay rate:    1.67170E-04  rev/day^2
    Epoch rev:            3554
    Checksum:              259
 
 
    Coasting Arc #16 (Orbit 3564)
    ---------------------------------------
 
    Vector Time (GMT): 2016/109/04:50:00.000
    Vector Time (MET): N/A
    Weight (LBS)     : 943970.7
 
              M50 Cartesian                         M50 Keplerian  
    -----------------------------------       --------------------------------
     X    =       -5509592.29                 A    =         6784564.54  meter
     Y    =       -2263540.99  meter          E    =           .0005608
     Z    =       -3253348.93                 I    =           51.62863
     XDOT =       4458.404218                 Wp   =           87.66822
     YDOT =      -4027.433210  meter/sec      RA   =          356.71083  deg
     ZDOT =      -4755.121223                 TA   =          130.02346
                                              MA   =          129.97424
                                              Ha   =            221.245  n.mi
                                              Hp   =            214.132
 
              M50 Cartesian                         J2K Cartesian  
    -----------------------------------       --------------------------------
     X    =      -18076090.21                 X    =        -5468067.86
     Y    =       -7426315.58  feet           Y    =        -2324921.06  meter
     Z    =      -10673716.96                 Z    =        -3280012.23
     XDOT =      14627.310425                 XDOT =        4526.207096
     YDOT =     -13213.363550  feet/sec       YDOT =       -3977.197731  meter/sec
     ZDOT =     -15600.791415                 ZDOT =       -4733.298196
 
              TDR Cartesian                         TDR Cartesian  
    -----------------------------------       --------------------------------
     X    =        4720405.53                 X    =         1438779.60
     Y    =      -18898055.01  feet           Y    =        -5760127.17  meter
     Z    =      -10789102.03                 Z    =        -3288518.30
     XDOT =      13844.128320                 XDOT =        4219.690312
     YDOT =      12297.374888  feet/sec       YDOT =        3748.239866  meter/sec
     ZDOT =     -15505.185097                 ZDOT =       -4725.980417
  
  
    The mean element set is posted at the UTC for which position is
    just north of the next ascending node relative to the above
    vector time
 
 
    TWO LINE MEAN ELEMENT SET
  
    ISS
    1 25544U 98067A   16109.22675790  .00016717  00000-0  10270-3 0  9158
    2 25544  51.6408 357.1170 0001176  55.9774 304.1490 15.54190598 35659
  
  
    Satellite: ISS
    Catalog Number: 25544
    Epoch time:      16109.22675790   =   yrday.fracday
    Element set:     915
    Inclination:       51.6408  deg
    RA of node:       357.1170  deg
    Eccentricity:     .0001176     
    Arg of perigee:    55.9774  deg
    Mean anomaly:     304.1490  deg
    Mean motion:   15.54190598  rev/day
    Decay rate:    1.67170E-04  rev/day^2
    Epoch rev:            3565
    Checksum:              321
 
 
    Coasting Arc #17 (Orbit 3580)
    ---------------------------------------
 
    Vector Time (GMT): 2016/110/04:50:00.000
    Vector Time (MET): N/A
    Weight (LBS)     : 943970.7
 
              M50 Cartesian                         M50 Keplerian  
    -----------------------------------       --------------------------------
     X    =        4213171.43                 A    =         6780642.17  meter
     Y    =        2932184.72  meter          E    =           .0009745
     Z    =        4423675.60                 I    =           51.58386
     XDOT =      -5949.706785                 Wp   =          104.69256
     YDOT =       3526.594828  meter/sec      RA   =          351.72261  deg
     ZDOT =       3320.479920                 TA   =          311.73552
                                              MA   =          311.81881
                                              Ha   =            221.075  n.mi
                                              Hp   =            214.194
 
              M50 Cartesian                         J2K Cartesian  
    -----------------------------------       --------------------------------
     X    =       13822740.91                 X    =         4158581.36
     Y    =        9620028.61  feet           Y    =         2978994.42  meter
     Z    =       14513371.38                 Z    =         4444009.43
     XDOT =     -19520.035383                 XDOT =       -6004.829467
     YDOT =      11570.193004  feet/sec       YDOT =        3459.753369  meter/sec
     ZDOT =      10893.962993                 ZDOT =        3291.443226
 
              TDR Cartesian                         TDR Cartesian  
    -----------------------------------       --------------------------------
     X    =       -7256284.89                 X    =        -2211715.64
     Y    =       15113064.04  feet           Y    =         4606461.92  meter
     Z    =       14601119.49                 Z    =         4450421.22
     XDOT =     -13505.792336                 XDOT =       -4116.565504
     YDOT =     -16913.888240  feet/sec       YDOT =       -5155.353135  meter/sec
     ZDOT =      10767.128246                 ZDOT =        3281.820689
  
  
    The mean element set is posted at the UTC for which position is
    just north of the next ascending node relative to the above
    vector time
 
 
    TWO LINE MEAN ELEMENT SET
  
    ISS
    1 25544U 98067A   16110.25553648  .00016717  00000-0  10270-3 0  9161
    2 25544  51.6408 351.9887 0001106  49.8276 310.2973 15.54223349 35811
  
  
    Satellite: ISS
    Catalog Number: 25544
    Epoch time:      16110.25553648   =   yrday.fracday
    Element set:     916
    Inclination:       51.6408  deg
    RA of node:       351.9887  deg
    Eccentricity:     .0001106     
    Arg of perigee:    49.8276  deg
    Mean anomaly:     310.2973  deg
    Mean motion:   15.54223349  rev/day
    Decay rate:    1.67170E-04  rev/day^2
    Epoch rev:            3581
    Checksum:              316
 
             </PRE>
           </TD>
        </TR>
    </TABLE>
    
    <table align="center" border="0" width="600" cellpadding="0" cellspacing="0">
      <tr>
        <td align="center" valign="top"><hr size="1" width="600" noshade="noshade" />
        <font face="Arial,helvetica" size="-2">Curator: <a href="/cgi-bin/comment.cgi?jsc-hsfwebma@mail.nasa.gov">Kim 
          Dismukes</a> | Responsible NASA Official: <a href="/cgi-bin/comment.cgi?jsc-hsfwebma@mail.nasa.gov">Amiko Kauderer</a> | Updated: 06/08/2009<br />
        <a href="http://www.nasa.gov/about/highlights/HP_Privacy.html">Privacy Policy and Important Notices</a></font></td>
      </tr>
    </table>
    </body>
    </html>
